{
  "type": "FeatureCollection",
  "features": [
    {
      "type": "Feature",
      "properties": {
        "norad_id": 63632,
        "name": "SHENZHOU-20 (SZ-20)",
        "group": "stations",
        "lat": -41.03308249782731,
        "lon": -60.249862389660144,
        "alt_km": 394.66889567950966,
        "timestamp": "2025-12-08T23:34:02.757076+00:00",
        "meta_object_name": "SHENZHOU-20 (SZ-20)",
        "meta_object_id": "2025-082A",
        "meta_epoch": "2025-12-08T14:45:28.776096",
        "meta_mean_motion": 15.58905517,
        "meta_eccentricity": 0.00091311,
        "meta_inclination": 41.4682,
        "meta_ra_of_asc_node": 41.7451,
        "meta_arg_of_pericenter": 357.4459,
        "meta_mean_anomaly": 2.6332,
        "meta_ephemeris_type": 0,
        "meta_classification_type": "U",
        "meta_norad_cat_id": 63632,
        "meta_element_set_no": 999,
        "meta_rev_at_epoch": 25530,
        "meta_bstar": 0.0003572809,
        "meta_mean_motion_dot": 0.0002832,
        "meta_mean_motion_ddot": 0,
        "tle_line1": "1 63632U 25082A   25342.61491639  .00028320  00000+0  35728-3 0  9994",
        "tle_line2": "2 63632  41.4682  41.7451 0009131 357.4459   2.6332 15.58905517255307"
      },
      "geometry": {
        "type": "Point",
        "coordinates": [
          -60.249862389660144,
          -41.03308249782731
        ]
      }
    },
    {
      "type": "Feature",
      "properties": {
        "norad_id": 64751,
        "name": "PROGRESS-MS 31",
        "group": "stations",
        "lat": -45.881184839505664,
        "lon": 106.29514063459632,
        "alt_km": 422.08910914455737,
        "timestamp": "2025-12-08T23:34:02.757086+00:00",
        "meta_object_name": "PROGRESS-MS 31",
        "meta_object_id": "2025-146A",
        "meta_epoch": "2025-12-08T13:01:02.621280",
        "meta_mean_motion": 15.49420853,
        "meta_eccentricity": 0.00033936,
        "meta_inclination": 51.6307,
        "meta_ra_of_asc_node": 163.2617,
        "meta_arg_of_pericenter": 220.7658,
        "meta_mean_anomaly": 139.3077,
        "meta_ephemeris_type": 0,
        "meta_classification_type": "U",
        "meta_norad_cat_id": 64751,
        "meta_element_set_no": 999,
        "meta_rev_at_epoch": 675,
        "meta_bstar": 0.00023027995,
        "meta_mean_motion_dot": 0.00012445,
        "meta_mean_motion_ddot": 0,
        "tle_line1": "1 64751U 25146A   25342.54239145  .00012445  00000+0  23028-3 0  9993",
        "tle_line2": "2 64751  51.6307 163.2617 0003393 220.7658 139.3077 15.49420853  6750"
      },
      "geometry": {
        "type": "Point",
        "coordinates": [
          106.29514063459632,
          -45.881184839505664
        ]
      }
    },
    {
      "type": "Feature",
      "properties": {
        "norad_id": 64786,
        "name": "TIANZHOU-9",
        "group": "stations",
        "lat": -41.03308264363035,
        "lon": -60.249860680589634,
        "alt_km": 394.668895546818,
        "timestamp": "2025-12-08T23:34:02.757096+00:00",
        "meta_object_name": "TIANZHOU-9",
        "meta_object_id": "2025-149A",
        "meta_epoch": "2025-12-08T14:45:28.776096",
        "meta_mean_motion": 15.58905517,
        "meta_eccentricity": 0.00091311,
        "meta_inclination": 41.4682,
        "meta_ra_of_asc_node": 41.7451,
        "meta_arg_of_pericenter": 357.4459,
        "meta_mean_anomaly": 2.6332,
        "meta_ephemeris_type": 0,
        "meta_classification_type": "U",
        "meta_norad_cat_id": 64786,
        "meta_element_set_no": 999,
        "meta_rev_at_epoch": 25530,
        "meta_bstar": 0.0003572809,
        "meta_mean_motion_dot": 0.0002832,
        "meta_mean_motion_ddot": 0,
        "tle_line1": "1 64786U 25149A   25342.61491639  .00028320  00000+0  35728-3 0  9999",
        "tle_line2": "2 64786  41.4682  41.7451 0009131 357.4459   2.6332 15.58905517255308"
      },
      "geometry": {
        "type": "Point",
        "coordinates": [
          -60.249860680589634,
          -41.03308264363035
        ]
      }
    },
    {
      "type": "Feature",
      "properties": {
        "norad_id": 65077,
        "name": "CREW DRAGON 11",
        "group": "stations",
        "lat": -45.88118416897907,
        "lon": 106.29514253448626,
        "alt_km": 422.0891091780104,
        "timestamp": "2025-12-08T23:34:02.757109+00:00",
        "meta_object_name": "CREW DRAGON 11",
        "meta_object_id": "2025-166A",
        "meta_epoch": "2025-12-08T13:01:02.621280",
        "meta_mean_motion": 15.49420853,
        "meta_eccentricity": 0.00033936,
        "meta_inclination": 51.6307,
        "meta_ra_of_asc_node": 163.2617,
        "meta_arg_of_pericenter": 220.7658,
        "meta_mean_anomaly": 139.3077,
        "meta_ephemeris_type": 0,
        "meta_classification_type": "U",
        "meta_norad_cat_id": 65077,
        "meta_element_set_no": 999,
        "meta_rev_at_epoch": 214,
        "meta_bstar": 0.00023027995,
        "meta_mean_motion_dot": 0.00012445,
        "meta_mean_motion_ddot": 0,
        "tle_line1": "1 65077U 25166A   25342.54239145  .00012445  00000+0  23028-3 0  9997",
        "tle_line2": "2 65077  51.6307 163.2617 0003393 220.7658 139.3077 15.49420853  2141"
      },
      "geometry": {
        "type": "Point",
        "coordinates": [
          106.29514253448626,
          -45.88118416897907
        ]
      }
    },
    {
      "type": "Feature",
      "properties": {
        "norad_id": 65304,
        "name": "DRAGON CRS-33",
        "group": "stations",
        "lat": -45.88118387744519,
        "lon": 106.29514336052691,
        "alt_km": 422.08910919255686,
        "timestamp": "2025-12-08T23:34:02.757119+00:00",
        "meta_object_name": "DRAGON CRS-33",
        "meta_object_id": "2025-186A",
        "meta_epoch": "2025-12-08T13:01:02.621280",
        "meta_mean_motion": 15.49420853,
        "meta_eccentricity": 0.00033936,
        "meta_inclination": 51.6307,
        "meta_ra_of_asc_node": 163.2617,
        "meta_arg_of_pericenter": 220.7658,
        "meta_mean_anomaly": 139.3077,
        "meta_ephemeris_type": 0,
        "meta_classification_type": "U",
        "meta_norad_cat_id": 65304,
        "meta_element_set_no": 999,
        "meta_rev_at_epoch": 11,
        "meta_bstar": 0.00023027995,
        "meta_mean_motion_dot": 0.00012445,
        "meta_mean_motion_ddot": 0,
        "tle_line1": "1 65304U 25186A   25342.54239145  .00012445  00000+0  23028-3 0  9992",
        "tle_line2": "2 65304  51.6307 163.2617 0003393 220.7658 139.3077 15.49420853   119"
      },
      "geometry": {
        "type": "Point",
        "coordinates": [
          106.29514336052691,
          -45.88118387744519
        ]
      }
    },
    {
      "type": "Feature",
      "properties": {
        "norad_id": 65586,
        "name": "PROGRESS-MS 32",
        "group": "stations",
        "lat": -45.88118352760539,
        "lon": 106.2951443517732,
        "alt_km": 422.08910921000825,
        "timestamp": "2025-12-08T23:34:02.757131+00:00",
        "meta_object_name": "PROGRESS-MS 32",
        "meta_object_id": "2025-204A",
        "meta_epoch": "2025-12-08T13:01:02.621280",
        "meta_mean_motion": 15.49420853,
        "meta_eccentricity": 0.00033936,
        "meta_inclination": 51.6307,
        "meta_ra_of_asc_node": 163.2617,
        "meta_arg_of_pericenter": 220.7658,
        "meta_mean_anomaly": 139.3077,
        "meta_ephemeris_type": 0,
        "meta_classification_type": "U",
        "meta_norad_cat_id": 65586,
        "meta_element_set_no": 999,
        "meta_rev_at_epoch": 27,
        "meta_bstar": 0.00023027995,
        "meta_mean_motion_dot": 0.00012445,
        "meta_mean_motion_ddot": 0,
        "tle_line1": "1 65586U 25204A   25342.54239145  .00012445  00000+0  23028-3 0  9995",
        "tle_line2": "2 65586  51.6307 163.2617 0003393 220.7658 139.3077 15.49420853   278"
      },
      "geometry": {
        "type": "Point",
        "coordinates": [
          106.2951443517732,
          -45.88118352760539
        ]
      }
    },
    {
      "type": "Feature",
      "properties": {
        "norad_id": 65616,
        "name": "CYGNUS NG-23",
        "group": "stations",
        "lat": -45.881183206919275,
        "lon": 106.29514526041461,
        "alt_km": 422.089109226009,
        "timestamp": "2025-12-08T23:34:02.757142+00:00",
        "meta_object_name": "CYGNUS NG-23",
        "meta_object_id": "2025-208A",
        "meta_epoch": "2025-12-08T13:01:02.621280",
        "meta_mean_motion": 15.49420853,
        "meta_eccentricity": 0.00033936,
        "meta_inclination": 51.6307,
        "meta_ra_of_asc_node": 163.2617,
        "meta_arg_of_pericenter": 220.7658,
        "meta_mean_anomaly": 139.3077,
        "meta_ephemeris_type": 0,
        "meta_classification_type": "U",
        "meta_norad_cat_id": 65616,
        "meta_element_set_no": 999,
        "meta_rev_at_epoch": 22,
        "meta_bstar": 0.00023027995,
        "meta_mean_motion_dot": 0.00012445,
        "meta_mean_motion_ddot": 0,
        "tle_line1": "1 65616U 25208A   25342.54239145  .00012445  00000+0  23028-3 0  9993",
        "tle_line2": "2 65616  51.6307 163.2617 0003393 220.7658 139.3077 15.49420853   227"
      },
      "geometry": {
        "type": "Point",
        "coordinates": [
          106.29514526041461,
          -45.881183206919275
        ]
      }
    }
  ]
}